{"type": "FeatureCollection", "features": [ {"type": "Feature", "properties": {"norad_id": 35773, "name": "COSMOS 2251 DEB", "group": "cosmos-2251-debris", "lat": -37.00985487280732, "lon": 156.69309814709118, "alt_km": 696.0901195493916, "timestamp": "2025-12-21T09:37:23.051528+00:00", "meta": {"OBJECT_NAME": "COSMOS 2251 DEB", "OBJECT_ID": "1993-036ART", "EPOCH": "2025-12-20T07:59:54.023424", "MEAN_MOTION": 14.62106943, "ECCENTRICITY": 0.00452591, "INCLINATION": 74.0079, "RA_OF_ASC_NODE": 326.2549, "ARG_OF_PERICENTER": 124.0691, "MEAN_ANOMALY": 236.4785, "EPHEMERIS_TYPE": 0, "CLASSIFICATION_TYPE": "U", "NORAD_CAT_ID": 35773, "ELEMENT_SET_NO": 999, "REV_AT_EPOCH": 86950, "BSTAR": 0.00039637734, "MEAN_MOTION_DOT": 1.991e-05, "MEAN_MOTION_DDOT": 0}, "tle": {"line1": "1 35773U 93036ART 25354.33326416  .00001991  00000+0  39638-3 0  9994", "line2": "2 35773  74.0079 326.2549 0045259 124.0691 236.4785 14.62106943869502"}}, "geometry": {"type": "Point", "coordinates": [156.69309814709118, -37.00985487280732]}}, {"type": "Feature", "properties": {"norad_id": 35777, "name": "COSMOS 2251 DEB", "group": "cosmos-2251-debris", "lat": -38.2000927330923, "lon": 142.15064192040188, "alt_km": 786.6204684339691, "timestamp": "2025-12-21T09:37:23.051550+00:00", "meta": {"OBJECT_NAME": "COSMOS 2251 DEB", "OBJECT_ID": "1993-036ARX", "EPOCH": "2025-12-21T03:15:52.332768", "MEAN_MOTION": 13.41306169, "ECCENTRICITY": 0.0451891, "INCLINATION": 73.7705, "RA_OF_ASC_NODE": 309.3239, "ARG_OF_PERICENTER": 202.9304, "MEAN_ANOMALY": 176.7174, "EPHEMERIS_TYPE": 0, "CLASSIFICATION_TYPE": "U", "NORAD_CAT_ID": 35777, "ELEMENT_SET_NO": 999, "REV_AT_EPOCH": 79797, "BSTAR": 0.00012978, "MEAN_MOTION_DOT": 1.09e-06, "MEAN_MOTION_DDOT": 0}, "tle": {"line1": "1 35777U 93036ARX 25355.13602237  .00000109  00000+0  12978-3 0  9993", "line2": "2 35777  73.7705 309.3239 0451891 202.9304 176.7174 13.41306169797973"}}, "geometry": {"type": "Point", "coordinates": [142.15064192040188, -38.2000927330923]}}, {"type": "Feature", "properties": {"norad_id": 35784, "name": "COSMOS 2251 DEB", "group": "cosmos-2251-debris", "lat": -37.29782515335855, "lon": -93.96064484635848, "alt_km": 703.1002807874138, "timestamp": "2025-12-21T09:37:23.051562+00:00", "meta": {"OBJECT_NAME": "COSMOS 2251 DEB", "OBJECT_ID": "1993-036ASE", "EPOCH": "2025-12-17T23:28:57.859680", "MEAN_MOTION": 14.50055355, "ECCENTRICITY": 0.00415956, "INCLINATION": 74.0403, "RA_OF_ASC_NODE": 79.8718, "ARG_OF_PERICENTER": 209.9484, "MEAN_ANOMALY": 149.9297, "EPHEMERIS_TYPE": 0, "CLASSIFICATION_TYPE": "U", "NORAD_CAT_ID": 35784, "ELEMENT_SET_NO": 999, "REV_AT_EPOCH": 65782, "BSTAR": 0.00024795111, "MEAN_MOTION_DOT": 9.44e-06, "MEAN_MOTION_DDOT": 0}, "tle": {"line1": "1 35784U 93036ASE 25351.97844745  .00000944  00000+0  24795-3 0  9998", "line2": "2 35784  74.0403  79.8718 0041595 209.9484 149.9297 14.50055355657829"}}, "geometry": {"type": "Point", "coordinates": [-93.96064484635848, -37.29782515335855]}}, {"type": "Feature", "properties": {"norad_id": 35786, "name": "COSMOS 2251 DEB", "group": "cosmos-2251-debris", "lat": -69.5992387654175, "lon": -23.371534258022525, "alt_km": 694.3241418722891, "timestamp": "2025-12-21T09:37:23.051572+00:00", "meta": {"OBJECT_NAME": "COSMOS 2251 DEB", "OBJECT_ID": "1993-036ASG", "EPOCH": "2025-12-19T18:40:39.541152", "MEAN_MOTION": 14.66292121, "ECCENTRICITY": 0.00334702, "INCLINATION": 74.0141, "RA_OF_ASC_NODE": 30.1848, "ARG_OF_PERICENTER": 158.321, "MEAN_ANOMALY": 201.9385, "EPHEMERIS_TYPE": 0, "CLASSIFICATION_TYPE": "U", "NORAD_CAT_ID": 35786, "ELEMENT_SET_NO": 999, "REV_AT_EPOCH": 73511, "BSTAR": 0.00056402109, "MEAN_MOTION_DOT": 3.106e-05, "MEAN_MOTION_DDOT": 0}, "tle": {"line1": "1 35786U 93036ASG 25353.77823543  .00003106  00000+0  56402-3 0  9996", "line2": "2 35786  74.0141  30.1848 0033470 158.3210 201.9385 14.66292121735118"}}, "geometry": {"type": "Point", "coordinates": [-23.371534258022525, -69.5992387654175]}}, {"type": "Feature", "properties": {"norad_id": 35789, "name": "COSMOS 2251 DEB", "group": "cosmos-2251-debris", "lat": 62.46849109717567, "lon": 55.17075912420778, "alt_km": 775.1058137361852, "timestamp": "2025-12-21T09:37:23.051582+00:00", "meta": {"OBJECT_NAME": "COSMOS 2251 DEB", "OBJECT_ID": "1993-036ASK", "EPOCH": "2025-12-20T11:22:01.638048", "MEAN_MOTION": 14.35991601, "ECCENTRICITY": 0.00476765, "INCLINATION": 74.0388, "RA_OF_ASC_NODE": 270.1736, "ARG_OF_PERICENTER": 7.6909, "MEAN_ANOMALY": 352.4963, "EPHEMERIS_TYPE": 0, "CLASSIFICATION_TYPE": "U", "NORAD_CAT_ID": 35789, "ELEMENT_SET_NO": 999, "REV_AT_EPOCH": 61338, "BSTAR": 9.629757e-05, "MEAN_MOTION_DOT": 2.57e-06, "MEAN_MOTION_DDOT": 0}, "tle": {"line1": "1 35789U 93036ASK 25354.47363007  .00000257  00000+0  96298-4 0  9993", "line2": "2 35789  74.0388 270.1736 0047676   7.6909 352.4963 14.35991601613383"}}, "geometry": {"type": "Point", "coordinates": [55.17075912420778, 62.46849109717567]}}, {"type": "Feature", "properties": {"norad_id": 35793, "name": "COSMOS 2251 DEB", "group": "cosmos-2251-debris", "lat": 54.44472752581415, "lon": 66.76357269511723, "alt_km": 626.0828257237245, "timestamp": "2025-12-21T09:37:23.051593+00:00", "meta": {"OBJECT_NAME": "COSMOS 2251 DEB", "OBJECT_ID": "1993-036ASP", "EPOCH": "2025-12-20T10:41:54.896928", "MEAN_MOTION": 14.78845643, "ECCENTRICITY": 0.00021644, "INCLINATION": 74.0407, "RA_OF_ASC_NODE": 45.0385, "ARG_OF_PERICENTER": 87.6843, "MEAN_ANOMALY": 287.023, "EPHEMERIS_TYPE": 0, "CLASSIFICATION_TYPE": "U", "NORAD_CAT_ID": 35793, "ELEMENT_SET_NO": 999, "REV_AT_EPOCH": 65911, "BSTAR": 0.0010069204, "MEAN_MOTION_DOT": 7.388e-05, "MEAN_MOTION_DDOT": 0}, "tle": {"line1": "1 35793U 93036ASP 25354.44577427  .00007388  00000+0  10069-2 0  9990", "line2": "2 35793  74.0407  45.0385 0002164  87.6843 287.0230 14.78845643659119"}}, "geometry": {"type": "Point", "coordinates": [66.76357269511723, 54.44472752581415]}}, {"type": "Feature", "properties": {"norad_id": 35824, "name": "COSMOS 2251 DEB", "group": "cosmos-2251-debris", "lat": 33.273232380193484, "lon": -157.0617832554718, "alt_km": 768.6758432383567, "timestamp": "2025-12-21T09:37:23.051603+00:00", "meta": {"OBJECT_NAME": "COSMOS 2251 DEB", "OBJECT_ID": "1993-036ASW", "EPOCH": "2025-12-20T19:06:39.912192", "MEAN_MOTION": 13.88444616, "ECCENTRICITY": 0.02478838, "INCLINATION": 73.8455, "RA_OF_ASC_NODE": 34.9416, "ARG_OF_PERICENTER": 119.5939, "MEAN_ANOMALY": 243.0136, "EPHEMERIS_TYPE": 0, "CLASSIFICATION_TYPE": "U", "NORAD_CAT_ID": 35824, "ELEMENT_SET_NO": 999, "REV_AT_EPOCH": 84339, "BSTAR": 0.00068036061, "MEAN_MOTION_DOT": 1.02e-05, "MEAN_MOTION_DDOT": 0}, "tle": {"line1": "1 35824U 93036ASW 25354.79629528  .00001020  00000+0  68036-3 0  9998", "line2": "2 35824  73.8455  34.9416 0247883 119.5939 243.0136 13.88444616843393"}}, "geometry": {"type": "Point", "coordinates": [-157.0617832554718, 33.273232380193484]}}, {"type": "Feature", "properties": {"norad_id": 35825, "name": "COSMOS 2251 DEB", "group": "cosmos-2251-debris", "lat": -21.073422895994995, "lon": 122.10534037233852, "alt_km": 1107.0356015606603, "timestamp": "2025-12-21T09:37:23.051613+00:00", "meta": {"OBJECT_NAME": "COSMOS 2251 DEB", "OBJECT_ID": "1993-036ASX", "EPOCH": "2025-12-14T02:36:29.406816", "MEAN_MOTION": 13.70963524, "ECCENTRICITY": 0.03526119, "INCLINATION": 74.113, "RA_OF_ASC_NODE": 140.3902, "ARG_OF_PERICENTER": 235.9093, "MEAN_ANOMALY": 120.8102, "EPHEMERIS_TYPE": 0, "CLASSIFICATION_TYPE": "U", "NORAD_CAT_ID": 35825, "ELEMENT_SET_NO": 999, "REV_AT_EPOCH": 82527, "BSTAR": 0.0023333684, "MEAN_MOTION_DOT": 3.214e-05, "MEAN_MOTION_DDOT": 0}, "tle": {"line1": "1 35825U 93036ASX 25348.10867369  .00003214  00000+0  23334-2 0  9992", "line2": "2 35825  74.1130 140.3902 0352611 235.9093 120.8102 13.70963524825277"}}, "geometry": {"type": "Point", "coordinates": [122.10534037233852, -21.073422895994995]}}, {"type": "Feature", "properties": {"norad_id": 35829, "name": "COSMOS 2251 DEB", "group": "cosmos-2251-debris", "lat": -72.23389095514672, "lon": -34.77676966945967, "alt_km": 649.6469039838803, "timestamp": "2025-12-21T09:37:23.051623+00:00", "meta": {"OBJECT_NAME": "COSMOS 2251 DEB", "OBJECT_ID": "1993-036ATB", "EPOCH": "2025-12-17T00:21:46.598688", "MEAN_MOTION": 14.76400839, "ECCENTRICITY": 0.0005573, "INCLINATION": 74.0249, "RA_OF_ASC_NODE": 90.4281, "ARG_OF_PERICENTER": 146.0686, "MEAN_ANOMALY": 214.0846, "EPHEMERIS_TYPE": 0, "CLASSIFICATION_TYPE": "U", "NORAD_CAT_ID": 35829, "ELEMENT_SET_NO": 999, "REV_AT_EPOCH": 87838, "BSTAR": 0.001494418, "MEAN_MOTION_DOT": 0.00010373, "MEAN_MOTION_DDOT": 0}, "tle": {"line1": "1 35829U 93036ATB 25351.01512267  .00010373  00000+0  14944-2 0  9995", "line2": "2 35829  74.0249  90.4281 0005573 146.0686 214.0846 14.76400839878381"}}, "geometry": {"type": "Point", "coordinates": [-34.77676966945967, -72.23389095514672]}}, {"type": "Feature", "properties": {"norad_id": 35830, "name": "COSMOS 2251 DEB", "group": "cosmos-2251-debris", "lat": 12.944231294960451, "lon": -105.50888123178916, "alt_km": 892.5697430485307, "timestamp": "2025-12-21T09:37:23.051634+00:00", "meta": {"OBJECT_NAME": "COSMOS 2251 DEB", "OBJECT_ID": "1993-036ATC", "EPOCH": "2025-12-17T01:01:27.071616", "MEAN_MOTION": 14.24015017, "ECCENTRICITY": 0.01218819, "INCLINATION": 73.8614, "RA_OF_ASC_NODE": 258.6041, "ARG_OF_PERICENTER": 226.0627, "MEAN_ANOMALY": 133.0413, "EPHEMERIS_TYPE": 0, "CLASSIFICATION_TYPE": "U", "NORAD_CAT_ID": 35830, "ELEMENT_SET_NO": 999, "REV_AT_EPOCH": 61325, "BSTAR": 0.00082142349, "MEAN_MOTION_DOT": 2.01e-05, "MEAN_MOTION_DDOT": 0}, "tle": {"line1": "1 35830U 93036ATC 25351.04267444  .00002010  00000+0  82142-3 0  9999", "line2": "2 35830  73.8614 258.6041 0121881 226.0627 133.0413 14.24015017613259"}}, "geometry": {"type": "Point", "coordinates": [-105.50888123178916, 12.944231294960451]}}]}